satname,norad_id,inclination_deg,eccentricity,mean_motion_rev_per_day,perigee_km,apogee_km,l1,l2
STARLINK-1392,45677,53.157,0.0001654,15.29369908,476.560740919178,478.82865004404266,1 45677U 20035W   26081.07354179  .00002588  00000+0  10194-3 0  9992,2 45677  53.1570   7.3086 0001654  88.1444 271.9746 15.29369908320655
STARLINK-1394,45679,53.0486,0.0003735,15.5193313,408.5465465695024,413.61809340153286,1 45679U 20035Y   26080.98894960  .00047455  00000+0  77994-3 0  9993,2 45679  53.0486 337.4583 0003735 173.3884 186.7174 15.51933130321061
STARLINK-1402,45685,53.0473,0.0001938,15.46701133,425.0654951225479,427.7029275440609,1 45685U 20035AE  26080.93837708  .00048293  00000+0  95351-3 0  9990,2 45685  53.0473 324.9772 0001938 229.5423 130.5415 15.46701133321246
STARLINK-1404,45686,53.1605,0.000219,15.31185604,470.7735722305888,473.7740521663318,1 45686U 20035AF  26080.90634828  .00032522  00000+0  10722-2 0  9992,2 45686  53.1605 352.9204 0002190 114.1157 246.0074 15.31185604320842
STARLINK-1413,45689,53.1606,0.0001617,15.30211003,474.07403492415597,476.2903983588176,1 45689U 20035AJ  26081.04666464  .00005577  00000+0  20022-3 0  9997,2 45689  53.1606 352.1827 0001617  89.5638 270.5549 15.30211003320785
STARLINK-1417,45693,53.0517,0.000172,15.13250097,525.1086721214406,527.4837971541565,1 45693U 20035AN  26081.08315252  .00015744  00000+0  89018-3 0  9999,2 45693  53.0517 358.1028 0001720 264.7200  95.3596 15.13250097320777
STARLINK-1420,45695,53.0518,0.0004556,15.55965233,396.2604444513381,402.4360890263906,1 45695U 20035AQ  26080.89021211  .00058785  00000+0  83163-3 0  9995,2 45695  53.0518 323.4392 0004556 163.9468 196.1688 15.55965233321252
STARLINK-1422,45696,53.1597,0.0001143,15.30197147,474.44024886109673,476.00692709150826,1 45696U 20035AR  26080.92340566 -.00000145  00000+0  72226-5 0  9995,2 45696  53.1597 352.7598 0001143  94.6863 265.4268 15.30197147320844
STARLINK-1351,45697,53.0524,0.0004356,15.54601346,400.3577159187298,406.26571403921935,1 45697U 20035AS  26080.94161854  .00114463  00000+0  16839-2 0  9992,2 45697  53.0524 322.5173 0004356 177.0922 183.0114 15.54601346321279
STARLINK-1398,45699,53.0281,0.000841,16.11022097,238.47164141567373,249.6101446317398,1 45699U 20035AU  26081.80395458  .01246812  10189-2  12163-2 0  9992,2 45699  53.0281 231.1886 0008410 303.8737  56.1496 16.11022097322622
STARLINK-1400,45700,53.05,0.0007846,15.5265445,403.6542641546994,414.30460726561523,1 45700U 20035AV  26081.24789005  .00055208  00000+0  88131-3 0  9991,2 45700  53.0500 322.5471 0007846 144.7370 215.4159 15.52654450321297
STARLINK-1403,45701,53.1552,0.0001835,15.29348289,476.5012481115491,479.01736205551424,1 45701U 20035AW  26079.97038049 -.00000992  00000+0 -22027-4 0  9999,2 45701  53.1552 344.1836 0001835  87.1970 272.9241 15.29348289320876
STARLINK-1407,45703,53.033,0.0007358,15.62729192,374.80500365815715,384.7499506027016,1 45703U 20035AY  26081.18009935  .00074969  00000+0  81690-3 0  9992,2 45703  53.0330 254.7716 0007358 156.2714 203.8640 15.62729192322246
STARLINK-1411,45706,53.0428,0.000386,15.64535391,371.9687518508035,377.1818457454756,1 45706U 20035BB  26080.83973426  .00119967  00000+0  12088-2 0  9993,2 45706  53.0428 281.9461 0003860 189.0953 170.9992 15.64535391321824
STARLINK-1423,45710,53.0491,0.0007346,15.55092876,396.9020612924751,406.86326618243766,1 45710U 20035BF  26080.93900102  .00102880  00000+0  14884-2 0  9992,2 45710  53.0491 322.8719 0007346 160.8286 199.3002 15.55092876321259
STARLINK-1433,45711,53.0494,0.0007428,15.57124857,390.95114102475964,401.01477363336744,1 45711U 20035BG  26081.20487832  .00045326  00000+0  61639-3 0  9996,2 45711  53.0494 320.4487 0007428 152.5317 207.6088 15.57124857321314
STARLINK-1434,45712,53.0535,0.000494,15.27798264,479.00650980145383,485.78471602301124,1 45712U 20035BH  26080.93591203  .00029458  00000+0  10789-2 0  9991,2 45712  53.0535 323.2596 0004940 134.9495 225.1905 15.27798264321263
STARLINK-1465,45731,53.051,0.0005045,15.51914359,407.71187658536473,414.5622541173043,1 45731U 20038B   26080.95215461  .00048604  00000+0  79889-3 0  9997,2 45731  53.0510 164.2307 0005045 336.0581  24.0192 15.51914359318282
STARLINK-1471,45735,53.0455,0.0001404,15.49541741,417.11148430760113,419.01985801766386,1 45735U 20038F   26081.29048295  .00028884  00000+0  52116-3 0  9990,2 45735  53.0455  81.6231 0001404 359.8853   0.2154 15.49541741319487
STARLINK-1480,45741,53.0536,8.81e-05,15.49093118,418.7788834597741,419.97660555775565,1 45741U 20038M   26079.31850691  .00173634  00000+0  30841-2 0  9992,2 45741  53.0536 166.3993 0000881 269.3316  90.7591 15.49093118318126
STARLINK-1500,45744,53.0349,0.0002436,15.35435373,457.96194338434907,461.2933023085998,1 45744U 20038Q   26080.85197272  .00029067  00000+0  83993-3 0  9992,2 45744  53.0349 135.6696 0002436 333.9821  26.1058 15.35435373318687
STARLINK-1504,45746,53.022,8.46e-05,15.53968056,404.5801567038179,405.7278895449317,1 45746U 20038S   26081.23103346  .00036387  00000+0  55830-3 0  9998,2 45746  53.0220  81.6412 0000846  34.6542 325.4522 15.53968056319468
STARLINK-1506,45747,53.0769,0.0002579,15.26485808,484.5571120998229,488.0978028669924,1 45747U 20038T   26080.90465980  .00010640  00000+0  41493-3 0  9991,2 45747  53.0769 145.8493 0002579 306.9719  53.1043 15.26485808318556
STARLINK-1464,45751,53.0503,0.0003473,15.45110412,428.6888357337439,433.4184995714959,1 45751U 20038X   26080.60157433  .00037210  00000+0  77886-3 0  9991,2 45751  53.0503 147.9229 0003473 332.4205  27.6616 15.45110412318497
STARLINK-1477,45754,53.0501,0.0002268,15.15094149,519.1280919431347,522.2574011161614,1 45754U 20038AA  26080.90535783  .00013534  00000+0  72923-3 0  9995,2 45754  53.0501 157.4063 0002268  25.7452 334.3654 15.15094149318380
STARLINK-1478,45755,53.049,0.0004023,15.57316938,392.700923774657,398.1509325066381,1 45755U 20038AB  26081.28401335  .00046186  00000+0  62390-3 0  9999,2 45755  53.0490 136.8793 0004023 329.3923  30.6853 15.57316938318696
STARLINK-1493,45759,53.0508,0.0003986,15.52262868,407.41502396288433,412.82662309980424,1 45759U 20038AF  26081.26996942  .00050512  00000+0  81960-3 0  9996,2 45759  53.0508 144.0139 0003986  41.9373 318.1941 15.52262868318596
STARLINK-1494,45760,53.0475,0.0006836,15.76256196,336.4656616730954,345.6521463130339,1 45760U 20038AG  26081.25159752  .00116907  00000+0  72245-3 0  9994,2 45760  53.0475  89.0453 0006836  46.2449 313.9135 15.76256196319375
STARLINK-1502,45764,53.0525,0.0005253,15.48932855,416.275633328406,423.41759491340144,1 45764U 20038AL  26080.56494941  .00041982  00000+0  76853-3 0  9992,2 45764  53.0525 149.2223 0005253  30.1178 330.0131 15.48932855318470
STARLINK-1470,45772,53.0458,0.0002634,15.28953224,477.13409312301246,480.7464014168745,1 45772U 20038AU  26080.83563151  .00021480  00000+0  76381-3 0  9998,2 45772  53.0458 117.8929 0002634  35.3821 324.7352 15.28953224318937
STARLINK-1482,45773,53.1594,0.0001532,15.30928628,471.99078007590833,474.08998082527796,1 45773U 20038AV  26081.28422288  .00019152  00000+0  64250-3 0  9999,2 45773  53.1594 132.4927 0001532  57.4801 302.6348 15.30928628318775
STARLINK-1496,45780,53.0495,0.0002318,15.50178288,414.6301401072251,417.77999709022606,1 45780U 20038BC  26081.28532850  .00048944  00000+0  85586-3 0  9990,2 45780  53.0495 117.4441 0002318 296.5847  63.4923 15.50178288318968
STARLINK-1513,45786,53.1574,0.0001198,15.30205923,474.37635500673787,476.018413925256,1 45786U 20038BJ  26080.83904130  .00002910  00000+0  11030-3 0  9996,2 45786  53.1574 134.7191 0001198  70.8713 289.2418 15.30205923318701
STARLINK-1522,46027,53.0647,0.0002295,15.09578289,535.9005187575203,539.0747904739901,1 46027U 20055A   26081.26294386  .00011971  00000+0  75361-3 0  9991,2 46027  53.0647  69.7905 0002295  81.4376 278.6874 15.09578289310784
STARLINK-1523,46028,53.1556,0.0001547,15.29360605,476.6618963713845,478.7830993000134,1 46028U 20055B   26081.25488834  .00001821  00000+0  75427-4 0  9991,2 46028  53.1556  68.3012 0001547  93.2452 266.8725 15.29360605310826
STARLINK-1526,46029,53.1582,0.0001634,15.29372071,476.56798947497555,478.8084731605695,1 46029U 20055C   26081.24407027  .00004619  00000+0  17223-3 0  9993,2 46029  53.1582  68.3180 0001634  99.4946 260.6239 15.29372071310816
STARLINK-1555,46032,53.1593,0.0001565,15.30167954,474.2381900952869,476.38331924249724,1 46032U 20055F   26081.23652481  .00039687  00000+0  13462-2 0  9995,2 46032  53.1593  68.4203 0001565 102.6159 257.5017 15.30167954310818
STARLINK-1556,46033,53.1561,0.0002014,15.29372957,476.30482082715207,479.06634616378415,1 46033U 20055G   26081.27250307  .00003516  00000+0  13407-3 0  9993,2 46033  53.1561  68.1401 0002014  80.8095 279.3133 15.29372957310794
STARLINK-1557,46034,53.1575,0.0002269,15.29354152,476.1861841307573,479.2973819224944,1 46034U 20055H   26081.20092710 -.00000751  00000+0 -13666-4 0  9997,2 46034  53.1575  68.3751 0002269  90.1241 270.0019 15.29354152310786
STARLINK-1558,46035,53.1587,0.0001362,15.29368905,476.7639282848759,478.6314576552413,1 46035U 20055J   26081.22650192  .00002817  00000+0  10988-3 0  9990,2 46035  53.1587  68.4386 0001362  84.7960 275.3196 15.29368905310814
STARLINK-1560,46036,53.1554,0.0001952,15.29383293,476.3164438777176,478.99294495521826,1 46036U 20055K   26081.26303251  .00010422  00000+0  37269-3 0  9998,2 46036  53.1554  68.1245 0001952  91.6056 268.5168 15.29383293310829
STARLINK-1567,46038,53.0893,0.0001903,15.42369348,437.8213829007491,440.41603042270526,1 46038U 20055M   26081.25002315  .01599663  00000+0  32709-1 0  9998,2 46038  53.0893  67.9478 0001903  76.3653 229.5634 15.42369348  5837
STARLINK-1569,46039,53.1607,0.0001512,15.30176416,474.24925041654024,476.32172537687893,1 46039U 20055N   26081.25002315  .00002743  00000+0  10479-3 0  9998,2 46039  53.1607  68.3628 0001512  87.8004   4.2158 15.30176416  5688
